{"type": "FeatureCollection", "features": [ {"type": "Feature", "properties": {"norad_id": 66860, "name": "STARLINK-35987", "group": "last-30-days", "lat": 30.633917444978366, "lon": 176.20154805913847, "alt_km": 411.0909184813636, "timestamp": "2025-12-27T02:10:14.908397+00:00", "meta": {"OBJECT_NAME": "STARLINK-35987", "OBJECT_ID": "2025-281N", "EPOCH": "2025-12-26T20:00:01.999008", "MEAN_MOTION": 15.50606927, "ECCENTRICITY": 0.0001551, "INCLINATION": 43.0005, "RA_OF_ASC_NODE": 37.1626, "ARG_OF_PERICENTER": 274.3132, "MEAN_ANOMALY": 220.4342, "EPHEMERIS_TYPE": 0, "CLASSIFICATION_TYPE": "U", "NORAD_CAT_ID": 66860, "ELEMENT_SET_NO": 999, "REV_AT_EPOCH": 365, "BSTAR": -0.0017227, "MEAN_MOTION_DOT": -0.00100221, "MEAN_MOTION_DDOT": 0}, "tle": {"line1": "1 66860U 25281N   25360.83335647 -.00100221  00000+0 -17227-2 0  9997", "line2": "2 66860  43.0005  37.1626 0001551 274.3132 220.4342 15.50606927  3651"}}, "geometry": {"type": "Point", "coordinates": [176.20154805913847, 30.633917444978366]}}, {"type": "Feature", "properties": {"norad_id": 66861, "name": "STARLINK-35991", "group": "last-30-days", "lat": 33.531469656113, "lon": 170.3462108236733, "alt_km": 410.32611666019056, "timestamp": "2025-12-27T02:10:14.908407+00:00", "meta": {"OBJECT_NAME": "STARLINK-35991", "OBJECT_ID": "2025-281P", "EPOCH": "2025-12-26T20:00:01.999008", "MEAN_MOTION": 15.50608662, "ECCENTRICITY": 0.0001, "INCLINATION": 43.0005, "RA_OF_ASC_NODE": 37.1772, "ARG_OF_PERICENTER": 270.2555, "MEAN_ANOMALY": 218.7387, "EPHEMERIS_TYPE": 0, "CLASSIFICATION_TYPE": "U", "NORAD_CAT_ID": 66861, "ELEMENT_SET_NO": 999, "REV_AT_EPOCH": 365, "BSTAR": -0.0017387, "MEAN_MOTION_DOT": -0.00101138, "MEAN_MOTION_DDOT": 0}, "tle": {"line1": "1 66861U 25281P   25360.83335647 -.00101138  00000+0 -17387-2 0  9993", "line2": "2 66861  43.0005  37.1772 0001000 270.2555 218.7387 15.50608662  3654"}}, "geometry": {"type": "Point", "coordinates": [170.3462108236733, 33.531469656113]}}, {"type": "Feature", "properties": {"norad_id": 66862, "name": "STARLINK-35974", "group": "last-30-days", "lat": 34.46139394903575, "lon": 168.24672176410664, "alt_km": 410.07296376537215, "timestamp": "2025-12-27T02:10:14.908431+00:00", "meta": {"OBJECT_NAME": "STARLINK-35974", "OBJECT_ID": "2025-281Q", "EPOCH": "2025-12-26T20:00:01.999008", "MEAN_MOTION": 15.5062415, "ECCENTRICITY": 0.0001171, "INCLINATION": 43.0006, "RA_OF_ASC_NODE": 37.1822, "ARG_OF_PERICENTER": 255.8359, "MEAN_ANOMALY": 231.166, "EPHEMERIS_TYPE": 0, "CLASSIFICATION_TYPE": "U", "NORAD_CAT_ID": 66862, "ELEMENT_SET_NO": 999, "REV_AT_EPOCH": 355, "BSTAR": -0.0012666, "MEAN_MOTION_DOT": -0.00074063, "MEAN_MOTION_DDOT": 0}, "tle": {"line1": "1 66862U 25281Q   25360.83335647 -.00074063  00000+0 -12666-2 0  9995", "line2": "2 66862  43.0006  37.1822 0001171 255.8359 231.1660 15.50624150  3554"}}, "geometry": {"type": "Point", "coordinates": [168.24672176410664, 34.46139394903575]}}, {"type": "Feature", "properties": {"norad_id": 66863, "name": "STARLINK-36134", "group": "last-30-days", "lat": 32.59491455685711, "lon": 172.34248252520044, "alt_km": 410.55235559006087, "timestamp": "2025-12-27T02:10:14.908443+00:00", "meta": {"OBJECT_NAME": "STARLINK-36134", "OBJECT_ID": "2025-281R", "EPOCH": "2025-12-26T20:00:01.999008", "MEAN_MOTION": 15.50610411, "ECCENTRICITY": 0.0001068, "INCLINATION": 43.0006, "RA_OF_ASC_NODE": 37.1728, "ARG_OF_PERICENTER": 277.8135, "MEAN_ANOMALY": 213.0974, "EPHEMERIS_TYPE": 0, "CLASSIFICATION_TYPE": "U", "NORAD_CAT_ID": 66863, "ELEMENT_SET_NO": 999, "REV_AT_EPOCH": 365, "BSTAR": -0.0017888, "MEAN_MOTION_DOT": -0.0010401, "MEAN_MOTION_DDOT": 0}, "tle": {"line1": "1 66863U 25281R   25360.83335647 -.00104010  00000+0 -17888-2 0  9993", "line2": "2 66863  43.0006  37.1728 0001068 277.8135 213.0974 15.50610411  3654"}}, "geometry": {"type": "Point", "coordinates": [172.34248252520044, 32.59491455685711]}}, {"type": "Feature", "properties": {"norad_id": 66864, "name": "STARLINK-36070", "group": "last-30-days", "lat": 31.687879648739898, "lon": 174.17579726143887, "alt_km": 410.35302602954107, "timestamp": "2025-12-27T02:10:14.908453+00:00", "meta": {"OBJECT_NAME": "STARLINK-36070", "OBJECT_ID": "2025-281S", "EPOCH": "2025-12-26T20:00:01.999008", "MEAN_MOTION": 15.5057161, "ECCENTRICITY": 0.0001126, "INCLINATION": 43.0005, "RA_OF_ASC_NODE": 37.1675, "ARG_OF_PERICENTER": 250.0018, "MEAN_ANOMALY": 242.715, "EPHEMERIS_TYPE": 0, "CLASSIFICATION_TYPE": "U", "NORAD_CAT_ID": 66864, "ELEMENT_SET_NO": 999, "REV_AT_EPOCH": 368, "BSTAR": 0.00069934, "MEAN_MOTION_DOT": 0.00040889, "MEAN_MOTION_DDOT": 0}, "tle": {"line1": "1 66864U 25281S   25360.83335647  .00040889  00000+0  69934-3 0  9995", "line2": "2 66864  43.0005  37.1675 0001126 250.0018 242.7150 15.50571610  3688"}}, "geometry": {"type": "Point", "coordinates": [174.17579726143887, 31.687879648739898]}}, {"type": "Feature", "properties": {"norad_id": 66865, "name": "STARLINK-36117", "group": "last-30-days", "lat": 29.588067399614616, "lon": 178.1141359473462, "alt_km": 411.04879915903166, "timestamp": "2025-12-27T02:10:14.908463+00:00", "meta": {"OBJECT_NAME": "STARLINK-36117", "OBJECT_ID": "2025-281T", "EPOCH": "2025-12-26T20:00:01.999008", "MEAN_MOTION": 15.50719772, "ECCENTRICITY": 0.0001262, "INCLINATION": 43.0003, "RA_OF_ASC_NODE": 37.1591, "ARG_OF_PERICENTER": 276.0832, "MEAN_ANOMALY": 220.5582, "EPHEMERIS_TYPE": 0, "CLASSIFICATION_TYPE": "U", "NORAD_CAT_ID": 66865, "ELEMENT_SET_NO": 999, "REV_AT_EPOCH": 365, "BSTAR": -0.0047629, "MEAN_MOTION_DOT": -0.0027164, "MEAN_MOTION_DDOT": 0}, "tle": {"line1": "1 66865U 25281T   25360.83335647 -.00271640  00000+0 -47629-2 0  9995", "line2": "2 66865  43.0003  37.1591 0001262 276.0832 220.5582 15.50719772  3650"}}, "geometry": {"type": "Point", "coordinates": [178.1141359473462, 29.588067399614616]}}, {"type": "Feature", "properties": {"norad_id": 66866, "name": "STARLINK-36126", "group": "last-30-days", "lat": 28.618443219249315, "lon": 179.80821229469532, "alt_km": 410.75178889766994, "timestamp": "2025-12-27T02:10:14.908473+00:00", "meta": {"OBJECT_NAME": "STARLINK-36126", "OBJECT_ID": "2025-281U", "EPOCH": "2025-12-26T20:00:01.999008", "MEAN_MOTION": 15.5056498, "ECCENTRICITY": 0.0001159, "INCLINATION": 43.0004, "RA_OF_ASC_NODE": 37.153, "ARG_OF_PERICENTER": 245.552, "MEAN_ANOMALY": 252.9312, "EPHEMERIS_TYPE": 0, "CLASSIFICATION_TYPE": "U", "NORAD_CAT_ID": 66866, "ELEMENT_SET_NO": 999, "REV_AT_EPOCH": 368, "BSTAR": 0.00075753, "MEAN_MOTION_DOT": 0.00044328, "MEAN_MOTION_DDOT": 0}, "tle": {"line1": "1 66866U 25281U   25360.83335647  .00044328  00000+0  75753-3 0  9995", "line2": "2 66866  43.0004  37.1530 0001159 245.5520 252.9312 15.50564980  3687"}}, "geometry": {"type": "Point", "coordinates": [179.80821229469532, 28.618443219249315]}}, {"type": "Feature", "properties": {"norad_id": 66867, "name": "STARLINK-36101", "group": "last-30-days", "lat": 27.48723153134433, "lon": -178.29616268071436, "alt_km": 410.992360035375, "timestamp": "2025-12-27T02:10:14.908483+00:00", "meta": {"OBJECT_NAME": "STARLINK-36101", "OBJECT_ID": "2025-281V", "EPOCH": "2025-12-26T20:00:01.999008", "MEAN_MOTION": 15.50606532, "ECCENTRICITY": 0.0001146, "INCLINATION": 43.0007, "RA_OF_ASC_NODE": 37.1478, "ARG_OF_PERICENTER": 244.803, "MEAN_ANOMALY": 255.6972, "EPHEMERIS_TYPE": 0, "CLASSIFICATION_TYPE": "U", "NORAD_CAT_ID": 66867, "ELEMENT_SET_NO": 999, "REV_AT_EPOCH": 349, "BSTAR": -0.0016854, "MEAN_MOTION_DOT": -0.00098079, "MEAN_MOTION_DDOT": 0}, "tle": {"line1": "1 66867U 25281V   25360.83335647 -.00098079  00000+0 -16854-2 0  9996", "line2": "2 66867  43.0007  37.1478 0001146 244.8030 255.6972 15.50606532  3497"}}, "geometry": {"type": "Point", "coordinates": [-178.29616268071436, 27.48723153134433]}}, {"type": "Feature", "properties": {"norad_id": 66868, "name": "STARLINK-36108", "group": "last-30-days", "lat": 26.390485087249743, "lon": -176.53301911405518, "alt_km": 411.5113615642822, "timestamp": "2025-12-27T02:10:14.908496+00:00", "meta": {"OBJECT_NAME": "STARLINK-36108", "OBJECT_ID": "2025-281W", "EPOCH": "2025-12-26T20:00:01.999008", "MEAN_MOTION": 15.50682315, "ECCENTRICITY": 0.0001375, "INCLINATION": 43.0004, "RA_OF_ASC_NODE": 37.1444, "ARG_OF_PERICENTER": 269.3777, "MEAN_ANOMALY": 232.9983, "EPHEMERIS_TYPE": 0, "CLASSIFICATION_TYPE": "U", "NORAD_CAT_ID": 66868, "ELEMENT_SET_NO": 999, "REV_AT_EPOCH": 349, "BSTAR": -0.0037889, "MEAN_MOTION_DOT": -0.00217359, "MEAN_MOTION_DDOT": 0}, "tle": {"line1": "1 66868U 25281W   25360.83335647 -.00217359  00000+0 -37889-2 0  9992", "line2": "2 66868  43.0004  37.1444 0001375 269.3777 232.9983 15.50682315  3495"}}, "geometry": {"type": "Point", "coordinates": [-176.53301911405518, 26.390485087249743]}}, {"type": "Feature", "properties": {"norad_id": 66869, "name": "STARLINK-36092", "group": "last-30-days", "lat": 25.348223648894052, "lon": -174.92056453927586, "alt_km": 411.2508577734652, "timestamp": "2025-12-27T02:10:14.908508+00:00", "meta": {"OBJECT_NAME": "STARLINK-36092", "OBJECT_ID": "2025-281X", "EPOCH": "2025-12-26T20:00:01.999008", "MEAN_MOTION": 15.50570222, "ECCENTRICITY": 0.0001215, "INCLINATION": 43.0006, "RA_OF_ASC_NODE": 37.1385, "ARG_OF_PERICENTER": 248.3017, "MEAN_ANOMALY": 255.9064, "EPHEMERIS_TYPE": 0, "CLASSIFICATION_TYPE": "U", "NORAD_CAT_ID": 66869, "ELEMENT_SET_NO": 999, "REV_AT_EPOCH": 368, "BSTAR": 0.00063706, "MEAN_MOTION_DOT": 0.00037197, "MEAN_MOTION_DDOT": 0}, "tle": {"line1": "1 66869U 25281X   25360.83335647  .00037197  00000+0  63706-3 0  9999", "line2": "2 66869  43.0006  37.1385 0001215 248.3017 255.9064 15.50570222  3688"}}, "geometry": {"type": "Point", "coordinates": [-174.92056453927586, 25.348223648894052]}}]}